[{"OBJECT_NAME":"STPSAT-5","OBJECT_ID":"2018-099E","EPOCH":"2026-03-09T17:03:28.111392","MEAN_MOTION":15.12747444,"ECCENTRICITY":0.00022983,"INCLINATION":97.4221,"RA_OF_ASC_NODE":121.2038,"ARG_OF_PERICENTER":348.2431,"MEAN_ANOMALY":11.8746,"EPHEMERIS_TYPE":0,"CLASSIFICATION_TYPE":"U","NORAD_CAT_ID":43762,"ELEMENT_SET_NO":999,"REV_AT_EPOCH":39782,"BSTAR":0.00030771004,"MEAN_MOTION_DOT":5.331e-5,"MEAN_MOTION_DDOT":0},{"OBJECT_NAME":"IHOPSAT-TD","OBJECT_ID":"2019-089H","EPOCH":"2026-03-09T00:09:00.873504","MEAN_MOTION":15.11211987,"ECCENTRICITY":0.00040442,"INCLINATION":36.9662,"RA_OF_ASC_NODE":282.0238,"ARG_OF_PERICENTER":141.2084,"MEAN_ANOMALY":218.8952,"EPHEMERIS_TYPE":0,"CLASSIFICATION_TYPE":"U","NORAD_CAT_ID":44859,"ELEMENT_SET_NO":999,"REV_AT_EPOCH":34282,"BSTAR":0.00027431478,"MEAN_MOTION_DOT":4.62e-5,"MEAN_MOTION_DDOT":0}]
